38040,GLOBALSTAR M084,2011,114.08,700.0,+,52.0,Active,1,LEO,Kazakhstan,Globalstar,Commercial,Communications,Soyuz,1 38040U 11080A   25085.63566453 -.00000064  00000+0  21958-3 0  9991,2 38040  52.0012 299.7928 0000662 111.5892 286.3716 12.62264202612249,12.62264202,6.62e-05,LEO
38041,GLOBALSTAR M080,2011,114.08,700.0,+,52.01,Active,1,LEO,Kazakhstan,Globalstar,Commercial,Communications,Soyuz,1 38041U 11080B   25085.52870931 -.00000052  00000+0  28825-3 0  9996,2 38041  52.0066 301.6976 0000848 122.6623 268.3381 12.62270652612352,12.62270652,8.48e-05,LEO
38042,GLOBALSTAR M082,2011,114.08,700.0,+,52.01,Active,1,LEO,Kazakhstan,Globalstar,Commercial,Communications,Soyuz,1 38042U 11080C   25085.88409501 -.00000082  00000+0  12165-3 0  9990,2 38042  52.0063 256.0493 0000919  71.4910  76.2621 12.62264708613276,12.62264708,9.19e-05,LEO
38043,GLOBALSTAR M092,2011,114.08,700.0,+,52.01,Active,1,LEO,Kazakhstan,Globalstar,Commercial,Communications,Soyuz,1 38043U 11080D   25085.46674362 -.00000072  00000+0  17688-3 0  9998,2 38043  52.0111 347.6912 0000606  79.8159  91.1549 12.62261498611506,12.62261498,6.06e-05,LEO
38044,GLOBALSTAR M090,2011,114.08,700.0,+,51.99,Active,1,LEO,Kazakhstan,Globalstar,Commercial,Communications,Soyuz,1 38044U 11080E   25085.48420219 -.00000086  00000+0  98628-4 0  9990,2 38044  51.9873 251.1816 0000883  89.7668 279.3171 12.62268685613175,12.62268685,8.83e-05,LEO
38045,GLOBALSTAR M086,2011,114.08,700.0,+,51.99,Active,1,LEO,Kazakhstan,Globalstar,Commercial,Communications,Soyuz,1 38045U 11080F   25085.51744696 -.00000084  00000+0  11124-3 0  9996,2 38045  51.9884 251.6248 0001631 120.4577 280.1803 12.62268629613121,12.62268629,0.0001631,LEO
39072,GLOBALSTAR M097,2013,114.08,700.0,+,52.0,Active,1,LEO,Kazakhstan,Globalstar,Commercial,Communications,Soyuz,1 39072U 13005A   25085.61430058 -.00000089  00000+0  80015-4 0  9992,2 39072  52.0032 165.7932 0000750 108.6308 251.4640 12.62271179560388,12.62271179,7.5e-05,LEO
39073,GLOBALSTAR M093,2013,114.08,700.0,+,51.98,Active,1,LEO,Kazakhstan,Globalstar,Commercial,Communications,Soyuz,1 39073U 13005B   25085.66671212 -.00000086  00000+0  10094-3 0  9993,2 39073  51.9799 159.0663 0000692 109.1740 250.9202 12.62263131560461,12.62263131,6.92e-05,LEO
